0 COSMOS 2251 DEB
1 37103U 93036BFZ 13281.85005145  .00004062  00000-0  76443-3 0  1810
2 37103 073.7855 355.9963 0099100 353.6056 005.6818 14.61820655205674
0 COSMOS 2251 DEB
1 37103U 93036BFZ 13281.85018348  .00010042  00000-0  18764-2 0  1826
2 37103 073.7951 355.9879 0099659 353.1253 006.8537 14.61823545205672
0 COSMOS 2251 DEB
1 37103U 93036BFZ 13284.86128050  .00006320  00000-0  11843-2 0  1838
2 37103 073.7938 350.1401 0098960 346.4735 013.3779 14.61857380206114
0 COSMOS 2251 DEB
1 37103U 93036BFZ 13285.54560776  .00006225  00000-0  11679-2 0  1841
2 37103 073.7904 348.8069 0098169 344.6934 015.1265 14.61862507206211
0 COSMOS 2251 DEB
1 37103U 93036BFZ 13290.81483415  .00005306  00000-0  99472-3 0  1859
2 37103 073.7951 338.5791 0098561 332.8174 026.7130 14.61919865206985
0 COSMOS 2251 DEB
1 37103U 93036BFZ 13290.81484828  .00006040  00000-0  11308-2 0  1866
2 37103 073.7915 338.5774 0098730 332.9374 026.6661 14.61926826206980
0 COSMOS 2251 DEB
1 37103U 93036BFZ 13294.78373836  .00010213  00000-0  19034-2 0  1874
2 37103 073.7916 330.8626 0099150 324.9100 034.5558 14.61970428207562
